TIANQI-3G_L_00003001-01
1 10000U 24902EK  26075.70052083  .00000000  00000+0  00000-0 0  9992
2 10000  50.0000   0.0000 0000000   0.0000   0.0000 14.48668702    15
TIANQI-3G_L_00003001-02
1 10001U 23783XQ  26075.70052083  .00000000  00000+0  00000-0 0  9999
2 10001  50.0000   0.0000 0000000   0.0000  40.0000 14.48668702    10
TIANQI-3G_L_00003001-03
1 10002U 24433V   26075.70052083  .00000000  00000+0  00000-0 0  9993
2 10002  50.0000   0.0000 0000000   0.0000  80.0000 14.48668702    15
TIANQI-3G_L_00003001-04
1 10003U 25765YT  26075.70052083  .00000000  00000+0  00000-0 0  9993
2 10003  50.0000   0.0000 0000000   0.0000 120.0000 14.48668702    11
TIANQI-3G_L_00003001-05
1 10004U 22632IO  26075.70052083  .00000000  00000+0  00000-0 0  9994
2 10004  50.0000   0.0000 0000000   0.0000 160.0000 14.48668702    16
TIANQI-3G_L_00003001-06
1 10005U 24789GD  26075.70052083  .00000000  00000+0  00000-0 0  9990
2 10005  50.0000   0.0000 0000000   0.0000 200.0000 14.48668702    12
TIANQI-3G_L_00003001-07
1 10006U 24997DF  26075.70052083  .00000000  00000+0  00000-0 0  9992
2 10006  50.0000   0.0000 0000000   0.0000 240.0000 14.48668702    17
TIANQI-3G_L_00003001-08
1 10007U 25299OQ  26075.70052083  .00000000  00000+0  00000-0 0  9999
2 10007  50.0000   0.0000 0000000   0.0000 280.0000 14.48668702    12
TIANQI-3G_L_00003001-09
1 10008U 22389GQ  26075.70052083  .00000000  00000+0  00000-0 0  9997
2 10008  50.0000   0.0000 0000000   0.0000 320.0000 14.48668702    18
TIANQI-3G_L_00003002-01
1 10009U 23845HZ  26075.70052083  .00000000  00000+0  00000-0 0  9996
2 10009  50.0000  18.0000 0000000   0.0000   8.0000 14.48668702    11
TIANQI-3G_L_00003002-02
1 10010U 22092CL  26075.70052083  .00000000  00000+0  00000-0 0  9991
2 10010  50.0000  18.0000 0000000   0.0000  48.0000 14.48668702    17
TIANQI-3G_L_00003002-03
1 10011U 23034FH  26075.70052083  .00000000  00000+0  00000-0 0  9999
2 10011  50.0000  18.0000 0000000   0.0000  88.0000 14.48668702    12
TIANQI-3G_L_00003002-04
1 10012U 26029NP  26075.70052083  .00000000  00000+0  00000-0 0  9997
2 10012  50.0000  18.0000 0000000   0.0000 128.0000 14.48668702    18
TIANQI-3G_L_00003002-05
1 10013U 26323UN  26075.70052083  .00000000  00000+0  00000-0 0  9995
2 10013  50.0000  18.0000 0000000   0.0000 168.0000 14.48668702    13
TIANQI-3G_L_00003002-06
1 10014U 23221UG  26075.70052083  .00000000  00000+0  00000-0 0  9990
2 10014  50.0000  18.0000 0000000   0.0000 208.0000 14.48668702    19
TIANQI-3G_L_00003002-07
1 10015U 23251XG  26075.70052083  .00000000  00000+0  00000-0 0  9994
2 10015  50.0000  18.0000 0000000   0.0000 248.0000 14.48668702    14
TIANQI-3G_L_00003002-08
1 10016U 26366CY  26075.70052083  .00000000  00000+0  00000-0 0  9995
2 10016  50.0000  18.0000 0000000   0.0000 288.0000 14.48668702    19
TIANQI-3G_L_00003002-09
1 10017U 23176EZ  26075.70052083  .00000000  00000+0  00000-0 0  9992
2 10017  50.0000  18.0000 0000000   0.0000 328.0000 14.48668702    15
TIANQI-3G_L_00003003-01
1 10018U 26452CW  26075.70052083  .00000000  00000+0  00000-0 0  9993
2 10018  50.0000  36.0000 0000000   0.0000  16.0000 14.48668702    10
TIANQI-3G_L_00003003-02
1 10019U 26140FA  26075.70052083  .00000000  00000+0  00000-0 0  9998
2 10019  50.0000  36.0000 0000000   0.0000  56.0000 14.48668702    15
TIANQI-3G_L_00003003-03
1 10020U 26675FJ  26075.70052083  .00000000  00000+0  00000-0 0  9993
2 10020  50.0000  36.0000 0000000   0.0000  96.0000 14.48668702    11
TIANQI-3G_L_00003003-04
1 10021U 24634JR  26075.70052083  .00000000  00000+0  00000-0 0  9997
2 10021  50.0000  36.0000 0000000   0.0000 136.0000 14.48668702    17
TIANQI-3G_L_00003003-05
1 10022U 22422FR  26075.70052083  .00000000  00000+0  00000-0 0  9991
2 10022  50.0000  36.0000 0000000   0.0000 176.0000 14.48668702    12
TIANQI-3G_L_00003003-06
1 10023U 26430PA  26075.70052083  .00000000  00000+0  00000-0 0  9995
2 10023  50.0000  36.0000 0000000   0.0000 216.0000 14.48668702    18
TIANQI-3G_L_00003003-07
1 10024U 22056TJ  26075.70052083  .00000000  00000+0  00000-0 0  9996
2 10024  50.0000  36.0000 0000000   0.0000 256.0000 14.48668702    13
TIANQI-3G_L_00003003-08
1 10025U 24624JM  26075.70052083  .00000000  00000+0  00000-0 0  9990
2 10025  50.0000  36.0000 0000000   0.0000 296.0000 14.48668702    18
TIANQI-3G_L_00003003-09
1 10026U 26235QM  26075.70052083  .00000000  00000+0  00000-0 0  9991
2 10026  50.0000  36.0000 0000000   0.0000 336.0000 14.48668702    14
TIANQI-3G_L_00003004-01
1 10027U 22984RT  26075.70052083  .00000000  00000+0  00000-0 0  9999
2 10027  50.0000  54.0000 0000000   0.0000  24.0000 14.48668702    19
TIANQI-3G_L_00003004-02
1 10028U 22587UJ  26075.70052083  .00000000  00000+0  00000-0 0  9999
2 10028  50.0000  54.0000 0000000   0.0000  64.0000 14.48668702    14
TIANQI-3G_L_00003004-03
1 10029U 23380NM  26075.70052083  .00000000  00000+0  00000-0 0  9992
2 10029  50.0000  54.0000 0000000   0.0000 104.0000 14.48668702    10
TIANQI-3G_L_00003004-04
1 10030U 24672ZQ  26075.70052083  .00000000  00000+0  00000-0 0  9999
2 10030  50.0000  54.0000 0000000   0.0000 144.0000 14.48668702    16
TIANQI-3G_L_00003004-05
1 10031U 23724KJ  26075.70052083  .00000000  00000+0  00000-0 0  9997
2 10031  50.0000  54.0000 0000000   0.0000 184.0000 14.48668702    11
TIANQI-3G_L_00003004-06
1 10032U 23170F   26075.70052083  .00000000  00000+0  00000-0 0  9993
2 10032  50.0000  54.0000 0000000   0.0000 224.0000 14.48668702    17
TIANQI-3G_L_00003004-07
1 10033U 22393CO  26075.70052083  .00000000  00000+0  00000-0 0  9990
2 10033  50.0000  54.0000 0000000   0.0000 264.0000 14.48668702    12
TIANQI-3G_L_00003004-08
1 10034U 25641ET  26075.70052083  .00000000  00000+0  00000-0 0  9990
2 10034  50.0000  54.0000 0000000   0.0000 304.0000 14.48668702    18
TIANQI-3G_L_00003004-09
1 10035U 25432FF  26075.70052083  .00000000  00000+0  00000-0 0  9999
2 10035  50.0000  54.0000 0000000   0.0000 344.0000 14.48668702    13
TIANQI-3G_L_00003005-01
1 10036U 23308FO  26075.70052083  .00000000  00000+0  00000-0 0  9990
2 10036  50.0000  72.0000 0000000   0.0000  32.0000 14.48668702    18
TIANQI-3G_L_00003005-02
1 10037U 23188YW  26075.70052083  .00000000  00000+0  00000-0 0  9997
2 10037  50.0000  72.0000 0000000   0.0000  72.0000 14.48668702    13
TIANQI-3G_L_00003005-03
1 10038U 26438SE  26075.70052083  .00000000  00000+0  00000-0 0  9999
2 10038  50.0000  72.0000 0000000   0.0000 112.0000 14.48668702    19
TIANQI-3G_L_00003005-04
1 10039U 24916YR  26075.70052083  .00000000  00000+0  00000-0 0  9999
2 10039  50.0000  72.0000 0000000   0.0000 152.0000 14.48668702    14
TIANQI-3G_L_00003005-05
1 10040U 26453ZT  26075.70052083  .00000000  00000+0  00000-0 0  9999
2 10040  50.0000  72.0000 0000000   0.0000 192.0000 14.48668702    10
TIANQI-3G_L_00003005-06
1 10041U 26949AU  26075.70052083  .00000000  00000+0  00000-0 0  9990
2 10041  50.0000  72.0000 0000000   0.0000 232.0000 14.48668702    16
TIANQI-3G_L_00003005-07
1 10042U 22277SU  26075.70052083  .00000000  00000+0  00000-0 0  9991
2 10042  50.0000  72.0000 0000000   0.0000 272.0000 14.48668702    11
TIANQI-3G_L_00003005-08
1 10043U 23436SD  26075.70052083  .00000000  00000+0  00000-0 0  9990
2 10043  50.0000  72.0000 0000000   0.0000 312.0000 14.48668702    17
TIANQI-3G_L_00003005-09
1 10044U 23665RH  26075.70052083  .00000000  00000+0  00000-0 0  9995
2 10044  50.0000  72.0000 0000000   0.0000 352.0000 14.48668702    12
TIANQI-3G_L_00003006-01
1 10045U 23344SU  26075.70052083  .00000000  00000+0  00000-0 0  9990
2 10045  50.0000  90.0000 0000000   0.0000  40.0000 14.48668702    17
TIANQI-3G_L_00003006-02
1 10046U 24137FX  26075.70052083  .00000000  00000+0  00000-0 0  9992
2 10046  50.0000  90.0000 0000000   0.0000  80.0000 14.48668702    12
TIANQI-3G_L_00003006-03
1 10047U 24653UD  26075.70052083  .00000000  00000+0  00000-0 0  9996
2 10047  50.0000  90.0000 0000000   0.0000 120.0000 14.48668702    18
TIANQI-3G_L_00003006-04
1 10048U 25078XO  26075.70052083  .00000000  00000+0  00000-0 0  9999
2 10048  50.0000  90.0000 0000000   0.0000 160.0000 14.48668702    13
TIANQI-3G_L_00003006-05
1 10049U 22639HV  26075.70052083  .00000000  00000+0  00000-0 0  9990
2 10049  50.0000  90.0000 0000000   0.0000 200.0000 14.48668702    19
TIANQI-3G_L_00003006-06
1 10050U 24346GV  26075.70052083  .00000000  00000+0  00000-0 0  9999
2 10050  50.0000  90.0000 0000000   0.0000 240.0000 14.48668702    15
TIANQI-3G_L_00003006-07
1 10051U 24769LA  26075.70052083  .00000000  00000+0  00000-0 0  9999
2 10051  50.0000  90.0000 0000000   0.0000 280.0000 14.48668702    10
TIANQI-3G_L_00003006-08
1 10052U 26611EU  26075.70052083  .00000000  00000+0  00000-0 0  9998
2 10052  50.0000  90.0000 0000000   0.0000 320.0000 14.48668702    16
TIANQI-3G_L_00003006-09
1 10053U 25466DL  26075.70052083  .00000000  00000+0  00000-0 0  9996
2 10053  50.0000  90.0000 0000000   0.0000   0.0000 14.48668702    12
TIANQI-3G_L_00003007-01
1 10054U 22837UC  26075.70052083  .00000000  00000+0  00000-0 0  9996
2 10054  50.0000 108.0000 0000000   0.0000  48.0000 14.48668702    15
TIANQI-3G_L_00003007-02
1 10055U 26361WX  26075.70052083  .00000000  00000+0  00000-0 0  9993
2 10055  50.0000 108.0000 0000000   0.0000  88.0000 14.48668702    10
TIANQI-3G_L_00003007-03
1 10056U 26607OZ  26075.70052083  .00000000  00000+0  00000-0 0  9997
2 10056  50.0000 108.0000 0000000   0.0000 128.0000 14.48668702    16
TIANQI-3G_L_00003007-04
1 10057U 23130KI  26075.70052083  .00000000  00000+0  00000-0 0  9996
2 10057  50.0000 108.0000 0000000   0.0000 168.0000 14.48668702    11
TIANQI-3G_L_00003007-05
1 10058U 24177MY  26075.70052083  .00000000  00000+0  00000-0 0  9999
2 10058  50.0000 108.0000 0000000   0.0000 208.0000 14.48668702    17
TIANQI-3G_L_00003007-06
1 10059U 23595CJ  26075.70052083  .00000000  00000+0  00000-0 0  9993
2 10059  50.0000 108.0000 0000000   0.0000 248.0000 14.48668702    12
